[{"OBJECT_NAME":"STARLINK-30497","OBJECT_ID":"2023-153W","EPOCH":"2026-03-08T17:33:50.388480","MEAN_MOTION":15.26752453,"ECCENTRICITY":0.00016398,"INCLINATION":43.0056,"RA_OF_ASC_NODE":72.1224,"ARG_OF_PERICENTER":251.9212,"MEAN_ANOMALY":108.1461,"EPHEMERIS_TYPE":0,"CLASSIFICATION_TYPE":"U","NORAD_CAT_ID":58011,"ELEMENT_SET_NO":999,"REV_AT_EPOCH":13475,"BSTAR":8.7316504e-5,"MEAN_MOTION_DOT":2.084e-5,"MEAN_MOTION_DDOT":0},{"OBJECT_NAME":"FLOCK 4G-11","OBJECT_ID":"2025-009W","EPOCH":"2026-03-09T10:57:03.681504","MEAN_MOTION":15.27220677,"ECCENTRICITY":0.00016118,"INCLINATION":97.3964,"RA_OF_ASC_NODE":150.6183,"ARG_OF_PERICENTER":333.5407,"MEAN_ANOMALY":26.575,"EPHEMERIS_TYPE":0,"CLASSIFICATION_TYPE":"U","NORAD_CAT_ID":62629,"ELEMENT_SET_NO":999,"REV_AT_EPOCH":6368,"BSTAR":0.00047740378,"MEAN_MOTION_DOT":0.00012672,"MEAN_MOTION_DDOT":0}]
